ASTERIA                 
1 43020U 98067NH  18293.90714977  .00010347  00000-0  12104-3 0  9992
2 43020  51.6409 101.5253 0002038 281.8575  78.2190 15.62210006 52122
DELLINGR (RBLE)         
1 43021U 98067NJ  18294.07994438  .00008076  00000-0  10719-3 0  9990
2 43021  51.6385 104.1292 0001886 268.5130  91.5646 15.59226275 52100
OSIRIS-3U               
1 43027U 98067NL  18293.89174607  .00048683  00000-0  34899-3 0  9996
2 43027  51.6345  90.7870 0003787 266.9785  93.0781 15.73173372 52140
AEROCUBE 7B             
1 43042U 17071F   18293.81601783  .00002851  00000-0  81175-4 0  9998
2 43042  51.6380 149.1568 0004838  10.2102 349.8980 15.39631621 48955
AEROCUBE 7C             
1 43043U 17071G   18293.81593648  .00002957  00000-0  83808-4 0  9991
2 43043  51.6383 149.1640 0004972  11.6090 348.5009 15.39636202 48925
CHEFSAT                 
1 43044U 17071H   18294.12182274  .00005476  00000-0  14002-3 0  9994
2 43044  51.6385 146.0028 0004788  12.5103 347.6000 15.41054990 48993
ASGARDIA 1              
1 43049U 17071N   18293.52701550  .00002537  00000-0  73065-4 0  9996
2 43049  51.6385 150.2460 0002745  36.6734 323.4438 15.39749211 48882
ISARA                   
1 43050U 17071P   18293.81609089  .00004666  00000-0  12182-3 0  9991
2 43050  51.6380 147.6964 0002524  37.6088 322.5073 15.40782535 48935
FAUNA                   
1 43052U 17071R   18294.02222286  .00002830  00000-0  79890-4 0  9998
2 43052  51.6386 147.5651 0002655  35.4393 324.6767 15.39929199 48957
CORVUS BC3              
1 43118U 18004H   18293.42342481  .00000780  00000-0  36760-4 0  9992
2 43118  97.5198 356.1781 0011161  25.4209 334.7574 15.22452561 42766
MICROMAS-2A             
1 43131U 18004W   18294.18305545  .00001864  00000-0  81675-4 0  9990
2 43131  97.5210 357.1887 0010229  26.3586 333.8168 15.23244704 42898
GOMX4-B                 
1 43196U 18015E   18294.16775355  .00002857  00000-0  12120-3 0  9992
2 43196  97.3631  60.6442 0020791  75.6177 284.6918 15.23727754 39719
GOMX4-A                 
1 43197U 18015F   18294.11929692  .00000435  00000-0  20895-4 0  9992
2 43197  97.3626  60.6008 0020915  75.7451  42.9460 15.23799745 39712
1KUNS-PF                
1 43466U 98067NP  18293.91532780  .00013551  00000-0  18047-3 0  9999
2 43466  51.6385 109.0198 0000687 193.4318 166.6657 15.58464431 25286
UBAKUSAT                
1 43467U 98067NQ  18294.07590298  .00009500  00000-0  13246-3 0  9991
2 43467  51.6381 108.5955 0002511 230.3391 129.7380 15.57649919 25310
BATSU-CS1 (IRAZU)       
1 43468U 98067NR  18293.56321587  .00014202  00000-0  18436-3 0  9999
2 43468  51.6383 110.4194 0000761 181.9440 178.1550 15.59102634125229
CUBERRT                 
1 43546U 98067NU  18293.76781726  .00010628  00000-0  15347-3 0  9999
2 43546  51.6385 111.7773 0005370 304.2015  55.8468 15.56542222 15375
TEMPEST-D               
1 43547U 98067NV  18293.98350680  .00004303  00000-0  68669-4 0  9994
2 43547  51.6382 110.9659 0005402 308.4294  51.6212 15.55548620 15084
RAINCUBE                
1 43548U 98067NW  18293.13778531  .00010877  00000-0  15927-3 0  9992
2 43548  51.6384 115.0682 0005321 311.2081  48.8451 15.56132213 15402
HALOSAT                 
1 43549U 98067NX  18293.97305798  .00009403  00000-0  13865-3 0  9998
2 43549  51.6382 110.8969 0005348 317.2284  42.8291 15.56134505 15099
ENDUROSAT ONE           
1 43551U 98067NZ  18293.94976856  .00011339  00000-0  16263-3 0  9993
2 43551  51.6377 110.7410 0005796 322.9896  37.0695 15.56646933 15508
EQUISAT                 
1 43552U 98067PA  18293.57021777  .00008868  00000-0  12984-3 0  9995
2 43552  51.6380 112.7078 0006050 322.4927  37.5642 15.56408101 15408
AEROCUBE 12A            
1 43556U 18046C   18294.15126299  .00001995  00000-0  84913-4 0  9994
2 43556  51.6419 129.8031 0007966 291.8133  68.1999 15.27932657 14778
AEROCUBE 12B            
1 43557U 18046D   18293.56336941  .00001830  00000-0  79048-4 0  9997
2 43557  51.6418 132.6281 0007987 289.4142  70.5974 15.27894507 14639
UITMSAT-1               
1 43589U 98067PD  18293.80144914  .00009973  00000-0  14732-3 0  9991
2 43589  51.6379 111.9983 0005417 332.9599  27.1110 15.56004092 11175
MAYA-1                  
1 43590U 98067PE  18293.60749153  .00009257  00000-0  13713-3 0  9990
2 43590  51.6380 112.9534 0005495 333.1367  26.9339 15.56027159 11072
BHUTAN-1                
1 43591U 98067PF  18293.86263169  .00010356  00000-0  15231-3 0  9996
2 43591  51.6380 111.6577 0005615 335.7253  24.3473 15.56073573 11119
SIRIUSSAT-1             
1 43595U 98067PG  18294.07617615  .00010188  00000-0  15248-3 0  9994
2 43595  51.6379 110.8292 0003228 280.0295  80.0332 15.55619876 10328
SIRIUSSAT-2             
1 43596U 98067PH  18294.08213241  .00010358  00000-0  15575-3 0  9995
2 43596  51.6388 110.8757 0003859 284.5397  75.5166 15.55470547 10321
TANUSHA-3               
1 43597U 98067PJ  18293.56369169  .00010510  00000-0  15664-3 0  9998
2 43597  51.6368 113.4012 0003243 295.5562  64.5093 15.55696717 10243
SURFSAT                 
1 43614U 18070B   18294.15025684  .00002432  00000-0  68537-4 0  9993
2 43614  93.0281 264.2360 0017652 143.4006 216.8434 15.36362614  5465
CP-7 (DAVE)             
1 43615U 18070C   18293.43356867  .00002587  00000-0  72905-4 0  9999
2 43615  93.0272 263.9406 0017231 145.5199 214.7175 15.36365962  5358
ELFIN-B                 
1 43616U 18070D   18293.36696901 -.00000006  00000-0  00000+0 0  9995
2 43616  93.0247 263.8937 0019854 151.3887 208.9015 15.36440018  5344
ELFIN-A                 
1 43617U 18070E   18293.36638102 -.00000006  00000-0  00000+0 0  9995
2 43617  93.0307 263.9265 0019759 147.1668 213.1044 15.36477560  5343
